[{"OBJECT_NAME":"APRIZESAT 10","OBJECT_ID":"2014-033K","EPOCH":"2026-03-09T22:32:23.152704","MEAN_MOTION":14.70752531,"ECCENTRICITY":0.00780042,"INCLINATION":97.9479,"RA_OF_ASC_NODE":198.2119,"ARG_OF_PERICENTER":230.1102,"MEAN_ANOMALY":129.3229,"EPHEMERIS_TYPE":0,"CLASSIFICATION_TYPE":"U","NORAD_CAT_ID":40019,"ELEMENT_SET_NO":999,"REV_AT_EPOCH":62766,"BSTAR":0.00017424571,"MEAN_MOTION_DOT":1.061e-5,"MEAN_MOTION_DDOT":0},{"OBJECT_NAME":"FENGYUN 1C DEB","OBJECT_ID":"1999-025BFJ","EPOCH":"2026-03-09T10:40:58.620288","MEAN_MOTION":14.22304129,"ECCENTRICITY":0.02419639,"INCLINATION":98.5854,"RA_OF_ASC_NODE":53.8919,"ARG_OF_PERICENTER":109.2929,"MEAN_ANOMALY":40.592,"EPHEMERIS_TYPE":0,"CLASSIFICATION_TYPE":"U","NORAD_CAT_ID":31064,"ELEMENT_SET_NO":999,"REV_AT_EPOCH":98487,"BSTAR":0.00026521758,"MEAN_MOTION_DOT":7.49e-6,"MEAN_MOTION_DDOT":0}]
